[{"OBJECT_NAME":"SAR-LUPE 2","OBJECT_ID":"2007-030A","EPOCH":"2026-04-25T11:58:03.582912","MEAN_MOTION":15.44377463,"ECCENTRICITY":0.0009869,"INCLINATION":98.0987,"RA_OF_ASC_NODE":213.6998,"ARG_OF_PERICENTER":298.6643,"MEAN_ANOMALY":61.3611,"EPHEMERIS_TYPE":0,"CLASSIFICATION_TYPE":"U","NORAD_CAT_ID":31797,"ELEMENT_SET_NO":999,"REV_AT_EPOCH":4879,"BSTAR":0.00061403,"MEAN_MOTION_DOT":0.0002836,"MEAN_MOTION_DDOT":0},{"OBJECT_NAME":"SAPPHIRE","OBJECT_ID":"2013-009C","EPOCH":"2026-04-25T17:39:52.166016","MEAN_MOTION":14.35225791,"ECCENTRICITY":0.001207,"INCLINATION":98.4252,"RA_OF_ASC_NODE":296.44,"ARG_OF_PERICENTER":49.6067,"MEAN_ANOMALY":310.617,"EPHEMERIS_TYPE":0,"CLASSIFICATION_TYPE":"U","NORAD_CAT_ID":39088,"ELEMENT_SET_NO":999,"REV_AT_EPOCH":68905,"BSTAR":4.5113e-5,"MEAN_MOTION_DOT":8.6e-7,"MEAN_MOTION_DDOT":0},{"OBJECT_NAME":"PRAETORIAN SDA_602","OBJECT_ID":"2025-203A","EPOCH":"2026-04-25T08:02:08.899008","MEAN_MOTION":13.84335472,"ECCENTRICITY":0.0005896,"INCLINATION":81.3036,"RA_OF_ASC_NODE":59.7213,"ARG_OF_PERICENTER":348.6764,"MEAN_ANOMALY":11.4259,"EPHEMERIS_TYPE":0,"CLASSIFICATION_TYPE":"U","NORAD_CAT_ID":65565,"ELEMENT_SET_NO":999,"REV_AT_EPOCH":3138,"BSTAR":0.00013807,"MEAN_MOTION_DOT":1.66e-6,"MEAN_MOTION_DDOT":0},{"OBJECT_NAME":"PRAETORIAN SDA_603","OBJECT_ID":"2025-203B","EPOCH":"2026-04-25T08:16:34.056768","MEAN_MOTION":13.8389712,"ECCENTRICITY":0.0009411,"INCLINATION":81.3043,"RA_OF_ASC_NODE":59.5902,"ARG_OF_PERICENTER":344.2729,"MEAN_ANOMALY":15.8134,"EPHEMERIS_TYPE":0,"CLASSIFICATION_TYPE":"U","NORAD_CAT_ID":65566,"ELEMENT_SET_NO":999,"REV_AT_EPOCH":3139,"BSTAR":0.00020815,"MEAN_MOTION_DOT":2.43e-6,"MEAN_MOTION_DDOT":0},{"OBJECT_NAME":"PRAETORIAN SDA_604","OBJECT_ID":"2025-203C","EPOCH":"2026-04-25T07:57:42.096672","MEAN_MOTION":13.83038841,"ECCENTRICITY":0.0005658,"INCLINATION":81.3056,"RA_OF_ASC_NODE":59.9338,"ARG_OF_PERICENTER":356.6429,"MEAN_ANOMALY":3.4688,"EPHEMERIS_TYPE":0,"CLASSIFICATION_TYPE":"U","NORAD_CAT_ID":65567,"ELEMENT_SET_NO":999,"REV_AT_EPOCH":3137,"BSTAR":9.9963e-6,"MEAN_MOTION_DOT":2.3e-7,"MEAN_MOTION_DDOT":0},{"OBJECT_NAME":"PRAETORIAN SDA_605","OBJECT_ID":"2025-203D","EPOCH":"2026-04-25T07:29:06.014688","MEAN_MOTION":13.83426529,"ECCENTRICITY":0.0008053,"INCLINATION":81.3021,"RA_OF_ASC_NODE":59.6671,"ARG_OF_PERICENTER":341.4053,"MEAN_ANOMALY":18.6808,"EPHEMERIS_TYPE":0,"CLASSIFICATION_TYPE":"U","NORAD_CAT_ID":65568,"ELEMENT_SET_NO":999,"REV_AT_EPOCH":3138,"BSTAR":6.2233e-5,"MEAN_MOTION_DOT":8.0e-7,"MEAN_MOTION_DDOT":0},{"OBJECT_NAME":"PRAETORIAN SDA_606","OBJECT_ID":"2025-203E","EPOCH":"2026-04-25T08:49:58.725120","MEAN_MOTION":13.83534214,"ECCENTRICITY":0.0005787,"INCLINATION":81.3059,"RA_OF_ASC_NODE":59.8191,"ARG_OF_PERICENTER":346.0912,"MEAN_ANOMALY":14.0084,"EPHEMERIS_TYPE":0,"CLASSIFICATION_TYPE":"U","NORAD_CAT_ID":65569,"ELEMENT_SET_NO":999,"REV_AT_EPOCH":3138,"BSTAR":9.2381e-5,"MEAN_MOTION_DOT":1.14e-6,"MEAN_MOTION_DDOT":0},{"OBJECT_NAME":"PRAETORIAN SDA_607","OBJECT_ID":"2025-203F","EPOCH":"2026-04-25T08:02:35.888640","MEAN_MOTION":13.84319581,"ECCENTRICITY":0.0008813,"INCLINATION":81.3042,"RA_OF_ASC_NODE":59.589,"ARG_OF_PERICENTER":344.6895,"MEAN_ANOMALY":15.3993,"EPHEMERIS_TYPE":0,"CLASSIFICATION_TYPE":"U","NORAD_CAT_ID":65570,"ELEMENT_SET_NO":999,"REV_AT_EPOCH":3139,"BSTAR":0.00024308,"MEAN_MOTION_DOT":2.83e-6,"MEAN_MOTION_DDOT":0},{"OBJECT_NAME":"PRAETORIAN SDA_608","OBJECT_ID":"2025-203G","EPOCH":"2026-04-25T08:48:08.419104","MEAN_MOTION":13.83808398,"ECCENTRICITY":0.0006121,"INCLINATION":81.301,"RA_OF_ASC_NODE":59.7006,"ARG_OF_PERICENTER":354.2817,"MEAN_ANOMALY":5.8268,"EPHEMERIS_TYPE":0,"CLASSIFICATION_TYPE":"U","NORAD_CAT_ID":65571,"ELEMENT_SET_NO":999,"REV_AT_EPOCH":3138,"BSTAR":5.21e-5,"MEAN_MOTION_DOT":7.0e-7,"MEAN_MOTION_DDOT":0},{"OBJECT_NAME":"PRAETORIAN SDA_609","OBJECT_ID":"2025-203H","EPOCH":"2026-04-25T07:37:10.291872","MEAN_MOTION":13.84303507,"ECCENTRICITY":0.0006819,"INCLINATION":81.3055,"RA_OF_ASC_NODE":59.7441,"ARG_OF_PERICENTER":345.8357,"MEAN_ANOMALY":14.2608,"EPHEMERIS_TYPE":0,"CLASSIFICATION_TYPE":"U","NORAD_CAT_ID":65572,"ELEMENT_SET_NO":999,"REV_AT_EPOCH":3138,"BSTAR":0.00026552,"MEAN_MOTION_DOT":3.08e-6,"MEAN_MOTION_DDOT":0},{"OBJECT_NAME":"PRAETORIAN SDA_610","OBJECT_ID":"2025-203J","EPOCH":"2026-04-25T08:22:54.362784","MEAN_MOTION":13.83914585,"ECCENTRICITY":0.0006513,"INCLINATION":81.3011,"RA_OF_ASC_NODE":59.6801,"ARG_OF_PERICENTER":349.7449,"MEAN_ANOMALY":10.3573,"EPHEMERIS_TYPE":0,"CLASSIFICATION_TYPE":"U","NORAD_CAT_ID":65573,"ELEMENT_SET_NO":999,"REV_AT_EPOCH":3138,"BSTAR":3.2374e-5,"MEAN_MOTION_DOT":4.8e-7,"MEAN_MOTION_DDOT":0},{"OBJECT_NAME":"PRAETORIAN SDA_611","OBJECT_ID":"2025-203K","EPOCH":"2026-04-25T07:52:14.359872","MEAN_MOTION":13.83302106,"ECCENTRICITY":0.0005845,"INCLINATION":81.3009,"RA_OF_ASC_NODE":59.8186,"ARG_OF_PERICENTER":359.3659,"MEAN_ANOMALY":0.7489,"EPHEMERIS_TYPE":0,"CLASSIFICATION_TYPE":"U","NORAD_CAT_ID":65574,"ELEMENT_SET_NO":999,"REV_AT_EPOCH":3137,"BSTAR":5.7107e-5,"MEAN_MOTION_DOT":7.5e-7,"MEAN_MOTION_DDOT":0},{"OBJECT_NAME":"PRAETORIAN SDA_612","OBJECT_ID":"2025-203L","EPOCH":"2026-04-25T07:28:11.466912","MEAN_MOTION":13.85031078,"ECCENTRICITY":0.0009188,"INCLINATION":81.3029,"RA_OF_ASC_NODE":59.5501,"ARG_OF_PERICENTER":343.4964,"MEAN_ANOMALY":16.5893,"EPHEMERIS_TYPE":0,"CLASSIFICATION_TYPE":"U","NORAD_CAT_ID":65575,"ELEMENT_SET_NO":999,"REV_AT_EPOCH":3139,"BSTAR":0.00019952,"MEAN_MOTION_DOT":2.37e-6,"MEAN_MOTION_DDOT":0},{"OBJECT_NAME":"PRAETORIAN SDA_613","OBJECT_ID":"2025-203M","EPOCH":"2026-04-25T19:46:10.460352","MEAN_MOTION":13.82946392,"ECCENTRICITY":0.0005734,"INCLINATION":81.3004,"RA_OF_ASC_NODE":59.3236,"ARG_OF_PERICENTER":350.7922,"MEAN_ANOMALY":9.3128,"EPHEMERIS_TYPE":0,"CLASSIFICATION_TYPE":"U","NORAD_CAT_ID":65576,"ELEMENT_SET_NO":999,"REV_AT_EPOCH":3144,"BSTAR":4.1223e-5,"MEAN_MOTION_DOT":5.7e-7,"MEAN_MOTION_DDOT":0},{"OBJECT_NAME":"PRAETORIAN SDA_614","OBJECT_ID":"2025-203N","EPOCH":"2026-04-25T20:50:41.445600","MEAN_MOTION":13.84770741,"ECCENTRICITY":0.0007014,"INCLINATION":81.3019,"RA_OF_ASC_NODE":59.0984,"ARG_OF_PERICENTER":343.082,"MEAN_ANOMALY":17.0102,"EPHEMERIS_TYPE":0,"CLASSIFICATION_TYPE":"U","NORAD_CAT_ID":65577,"ELEMENT_SET_NO":999,"REV_AT_EPOCH":3147,"BSTAR":5.004e-5,"MEAN_MOTION_DOT":6.8e-7,"MEAN_MOTION_DDOT":0},{"OBJECT_NAME":"PRAETORIAN SDA_615","OBJECT_ID":"2025-203P","EPOCH":"2026-04-25T19:58:46.932096","MEAN_MOTION":13.84427998,"ECCENTRICITY":0.0008897,"INCLINATION":81.3029,"RA_OF_ASC_NODE":59.0628,"ARG_OF_PERICENTER":341.0566,"MEAN_ANOMALY":19.0258,"EPHEMERIS_TYPE":0,"CLASSIFICATION_TYPE":"U","NORAD_CAT_ID":65578,"ELEMENT_SET_NO":999,"REV_AT_EPOCH":3146,"BSTAR":0.00017179,"MEAN_MOTION_DOT":2.04e-6,"MEAN_MOTION_DDOT":0},{"OBJECT_NAME":"PRAETORIAN SDA_616","OBJECT_ID":"2025-203Q","EPOCH":"2026-04-25T19:59:30.163200","MEAN_MOTION":13.83317394,"ECCENTRICITY":0.0005575,"INCLINATION":81.3069,"RA_OF_ASC_NODE":59.4642,"ARG_OF_PERICENTER":357.7446,"MEAN_ANOMALY":2.3684,"EPHEMERIS_TYPE":0,"CLASSIFICATION_TYPE":"U","NORAD_CAT_ID":65579,"ELEMENT_SET_NO":999,"REV_AT_EPOCH":3144,"BSTAR":0.00027898,"MEAN_MOTION_DOT":3.18e-6,"MEAN_MOTION_DDOT":0}]
